#aV2012  8 29  0  0  0.00000000     288 DD+AD WGS84 FIT  NGA
## 1703 259200.00000000   300.00000000 56168 0.0000000000000
+   31     1  2  3  4  5  6  7  8  9 10 11 12 13 14 15 16 17
+         18 19 20 21 22 23 25 26 27 28 29 30 31 32  0  0  0
+          0  0  0  0  0  0  0  0  0  0  0  0  0  0  0  0  0
+          0  0  0  0  0  0  0  0  0  0  0  0  0  0  0  0  0
+          0  0  0  0  0  0  0  0  0  0  0  0  0  0  0  0  0
++         2  2  2  2  2  2  2  2  2  2  2  2  2  2  2  2  2
++         2  2  2  2  2  2  2  2  2  2  2  2  2  2  2  0  0
++         0  0  0  0  0  0  0  0  0  0  0  0  0  0  0  0  0
++         0  0  0  0  0  0  0  0  0  0  0  0  0  0  0  0  0
++         0  0  0  0  0  0  0  0  0  0  0  0  0  0  0  0  0
%c cc cc ccc ccc cccc cccc cccc cccc ccccc ccccc ccccc ccccc
%c cc cc ccc ccc cccc cccc cccc cccc ccccc ccccc ccccc ccccc
%f  0.0000000  0.000000000  0.00000000000  0.000000000000000
%f  0.0000000  0.000000000  0.00000000000  0.000000000000000
%i    0    0    0    0      0      0      0      0         0
%i    0    0    0    0      0      0      0      0         0
/*      NGA, ST. LOUIS,MO.                                  
/*   EPHEMERIS COMPUTED FROM  1 DAYS OF DATA
/*   EPOCHA SMOOTHER  
/* CCCCCCCCCCCCCCCCCCCCCCCCCCCCCCCCCCCCCCCCCCCCCCCCCCCCCCCCC
*  2012  8 29  4 25  0.00000000                                                 
P  1 -13695.166855  22467.288823  -3428.650242    271.485088                    
V  1  -4869.556902   1796.709358  31383.890655      0.015244                    
P  2  19685.497054  -7998.001609 -15471.506961    401.257974                    
V  2  -9511.780268  18004.961357 -21716.843402      0.011052                    
P  3 -16371.167239   2124.663480  20361.874450     94.383641                    
V  3 -13191.396395 -23613.157635  -7697.315990      0.049844                    
P  4  15199.551712   5743.254394 -21305.761809    288.308775                    
V  4 -15486.922999  21508.131085  -5006.873969      0.113392                    
P  5  25323.134922  -2652.564923   7781.565756   -347.547916                    
V  5   9488.343331   3973.141083 -29319.832615     -0.031290                    
P  6 -17834.858456  -3648.465136  19547.466968    -18.437764                    
V  6  -9867.243525 -22542.409455 -12966.222514     -0.078421                    
P  7  -2784.116266  21065.853769  15781.560213    115.982826                    
V  7 -13686.794071  14788.123426 -22463.703340      0.041679                    
P  8   8268.379149  12112.490328  22168.030182      2.105072                    
V  8 -19229.311806  20254.540996  -4480.604416      0.000877                    
P  9  15859.537973 -21328.786922    271.156589    181.876671                    
V  9   1025.039785   2008.722518  32240.517150      0.025525                    
P 10  23309.448895   9802.923861  -9028.635469    -49.841645                    
V 10 -11267.751155   1117.378816 -28303.656029     -0.013869                    
P 11 -12753.067562  22503.460494   4874.518312   -297.087095                    
V 11  -2478.787121  -8223.993998  29398.092788     -0.039178                    
P 12  11827.929148 -12115.424193 -20430.634999     87.971838                    
V 12  25500.981639   4615.475874  12220.264196      0.020498                    
P 13   4557.274730  25594.451425  -5272.210363    184.825516                    
V 13  -3971.510720  -5577.814443 -31420.021824     -0.025465                    
P 14 -14311.548289 -19907.285992 -10212.118838    211.286583                    
V 14  -2526.635949 -13079.807188  28356.722226      0.010006                    
P 15   8745.242110 -15314.279023  19791.173077    -94.445291                    
V 15  11807.907050  22380.347000  12315.023438     -0.005997                    
P 16 -25481.799679   1221.772103   7949.180068   -244.824668                    
V 16  -9579.647839  -3360.252247 -29861.681420     -0.008450                    
P 17  14852.032089  19872.726248  -9630.573295    101.114729                    
V 17   2321.622719  12405.749279  28405.221355     -0.031315                    
P 18  -9523.515762 -15903.310327  19520.195587    212.346606                    
V 18  23974.387176   1643.520254  12933.407762      0.018321                    
P 19 -11060.329804  12395.631868  20566.378417   -298.774639                    
V 19  -9240.336034 -24714.902519  10288.487719     -0.035629                    
P 20  -8326.385954  14808.155519 -20560.297644     67.125471                    
V 20 -25753.564267  -2875.119361   8492.885123      0.007217                    
P 21  -1237.427891 -20073.843703  17575.556279   -246.213058                    
V 21  14890.389724 -15884.225145 -18174.676012     -0.024036                    
P 22 -22068.389149 -10766.901438  10476.542669    147.143516                    
V 22  13362.718967  -1565.515245  26900.748503      0.003064                    
P 23  -3092.902989  21075.769951 -15560.285086    170.188051                    
V 23  -9750.101041 -17628.803987 -22247.035581     -0.039259                    
P 25  -2867.522531 -15231.820962 -21617.149882     41.088804                    
V 25  27197.094441   2565.000312  -5364.864036      0.011606                    
P 26  14609.487106  -1582.525996  21533.245129   -299.191362                    
V 26   8852.445469  27352.405817  -3542.892325      0.126918                    
P 27  17843.777989 -18439.586961   6256.800348    425.344296                    
V 27  -2167.453607   7333.801228  31250.250867      0.041770                    
P 28  19445.387801  12635.366188  13700.340702    179.954207                    
V 28 -16365.221697  -1323.065346  25287.002747      0.037857                    
P 29  -2720.781531 -24860.992186  -8960.044376    349.492831                    
V 29   6321.403098   9837.680268 -28995.518349      0.042287                    
P 30 -26141.710981  -3107.217715  -3815.820891   -393.113017                    
V 30   4447.466150  -2688.483654 -31274.173186     -0.246450                    
P 31 -15777.801377  -2661.260343 -21059.524833    270.749211                    
V 31  16192.869836 -21694.962607  -9069.932036      0.026110                    
P 32 -17517.549414   9031.383745 -17371.154850   -481.914809                    
V 32 -21746.294231  -6755.248176  18696.859093     -0.042311                    
EOF
